CCSDS_OMM_VERS = 2.0
CREATION_DATE  = 
ORIGINATOR     = 

OBJECT_NAME    = STARLINK-35437
OBJECT_ID      = 2025-268G
CENTER_NAME    = EARTH
REF_FRAME      = TEME
TIME_SYSTEM    = UTC
MEAN_ELEMENT_THEORY = SGP/SGP4

EPOCH          = 2025-12-08T06:00:02.999808
MEAN_MOTION    = 15.54792989
ECCENTRICITY   = .00013597
INCLINATION    = 43.0007
RA_OF_ASC_NODE = 147.4432
ARG_OF_PERICENTER = 270.3617
MEAN_ANOMALY   = 300.7540

EPHEMERIS_TYPE = 0
CLASSIFICATION_TYPE = U
NORAD_CAT_ID   = 66563
ELEMENT_SET_NO = 999
REV_AT_EPOCH   = 394
BSTAR          = -.33708343E-1
MEAN_MOTION_DOT = -.2053856E-1
MEAN_MOTION_DDOT = 0

CCSDS_OMM_VERS = 2.0
CREATION_DATE  = 
ORIGINATOR     = 

OBJECT_NAME    = STARLINK-35358
OBJECT_ID      = 2025-268H
CENTER_NAME    = EARTH
REF_FRAME      = TEME
TIME_SYSTEM    = UTC
MEAN_ELEMENT_THEORY = SGP/SGP4

EPOCH          = 2025-12-08T06:00:02.999808
MEAN_MOTION    = 15.54796958
ECCENTRICITY   = .00013354
INCLINATION    = 43.0001
RA_OF_ASC_NODE = 147.4386
ARG_OF_PERICENTER = 267.5051
MEAN_ANOMALY   = 305.5247

EPHEMERIS_TYPE = 0
CLASSIFICATION_TYPE = U
NORAD_CAT_ID   = 66564
ELEMENT_SET_NO = 999
REV_AT_EPOCH   = 389
BSTAR          = -.33779603E-1
MEAN_MOTION_DOT = -.2057985E-1
MEAN_MOTION_DDOT = 0

CCSDS_OMM_VERS = 2.0
CREATION_DATE  = 
ORIGINATOR     = 

OBJECT_NAME    = STARLINK-35893
OBJECT_ID      = 2025-268J
CENTER_NAME    = EARTH
REF_FRAME      = TEME
TIME_SYSTEM    = UTC
MEAN_ELEMENT_THEORY = SGP/SGP4

EPOCH          = 2025-12-08T06:00:02.999808
MEAN_MOTION    = 15.54787847
ECCENTRICITY   = .00013081
INCLINATION    = 43.0001
RA_OF_ASC_NODE = 147.4337
ARG_OF_PERICENTER = 265.9397
MEAN_ANOMALY   = 309.0112

EPHEMERIS_TYPE = 0
CLASSIFICATION_TYPE = U
NORAD_CAT_ID   = 66565
ELEMENT_SET_NO = 999
REV_AT_EPOCH   = 394
BSTAR          = -.33541795E-1
MEAN_MOTION_DOT = -.2044419E-1
MEAN_MOTION_DDOT = 0

CCSDS_OMM_VERS = 2.0
CREATION_DATE  = 
ORIGINATOR     = 

OBJECT_NAME    = STARLINK-35871
OBJECT_ID      = 2025-268K
CENTER_NAME    = EARTH
REF_FRAME      = TEME
TIME_SYSTEM    = UTC
MEAN_ELEMENT_THEORY = SGP/SGP4

EPOCH          = 2025-12-08T06:00:02.999808
MEAN_MOTION    = 15.54790101
ECCENTRICITY   = .00012962
INCLINATION    = 43.0000
RA_OF_ASC_NODE = 147.4286
ARG_OF_PERICENTER = 265.9898
MEAN_ANOMALY   = 310.8779

EPHEMERIS_TYPE = 0
CLASSIFICATION_TYPE = U
NORAD_CAT_ID   = 66566
ELEMENT_SET_NO = 999
REV_AT_EPOCH   = 394
BSTAR          = -.33624248E-1
MEAN_MOTION_DOT = -.2049049E-1
MEAN_MOTION_DDOT = 0

CCSDS_OMM_VERS = 2.0
CREATION_DATE  = 
ORIGINATOR     = 

OBJECT_NAME    = STARLINK-35825
OBJECT_ID      = 2025-268L
CENTER_NAME    = EARTH
REF_FRAME      = TEME
TIME_SYSTEM    = UTC
MEAN_ELEMENT_THEORY = SGP/SGP4

EPOCH          = 2025-12-08T06:00:02.999808
MEAN_MOTION    = 15.54794346
ECCENTRICITY   = .00013393
INCLINATION    = 42.9998
RA_OF_ASC_NODE = 147.4241
ARG_OF_PERICENTER = 262.1630
MEAN_ANOMALY   = 316.6199

EPHEMERIS_TYPE = 0
CLASSIFICATION_TYPE = U
NORAD_CAT_ID   = 66567
ELEMENT_SET_NO = 999
REV_AT_EPOCH   = 394
BSTAR          = -.33733677E-1
MEAN_MOTION_DOT = -.2055314E-1
MEAN_MOTION_DDOT = 0

CCSDS_OMM_VERS = 2.0
CREATION_DATE  = 
ORIGINATOR     = 

OBJECT_NAME    = STARLINK-35803
OBJECT_ID      = 2025-268M
CENTER_NAME    = EARTH
REF_FRAME      = TEME
TIME_SYSTEM    = UTC
MEAN_ELEMENT_THEORY = SGP/SGP4

EPOCH          = 2025-12-08T06:00:02.999808
MEAN_MOTION    = 15.54789347
ECCENTRICITY   = .00013687
INCLINATION    = 43.0001
RA_OF_ASC_NODE = 147.4187
ARG_OF_PERICENTER = 264.4096
MEAN_ANOMALY   = 316.2924

EPHEMERIS_TYPE = 0
CLASSIFICATION_TYPE = U
NORAD_CAT_ID   = 66568
ELEMENT_SET_NO = 999
REV_AT_EPOCH   = 394
BSTAR          = -.3360923E-1
MEAN_MOTION_DOT = -.2048227E-1
MEAN_MOTION_DDOT = 0

CCSDS_OMM_VERS = 2.0
CREATION_DATE  = 
ORIGINATOR     = 

OBJECT_NAME    = STARLINK-35835
OBJECT_ID      = 2025-268N
CENTER_NAME    = EARTH
REF_FRAME      = TEME
TIME_SYSTEM    = UTC
MEAN_ELEMENT_THEORY = SGP/SGP4

EPOCH          = 2025-12-08T06:00:02.999808
MEAN_MOTION    = 15.54793786
ECCENTRICITY   = .00013372
INCLINATION    = 43.0000
RA_OF_ASC_NODE = 147.4139
ARG_OF_PERICENTER = 263.3909
MEAN_ANOMALY   = 319.2255

EPHEMERIS_TYPE = 0
CLASSIFICATION_TYPE = U
NORAD_CAT_ID   = 66569
ELEMENT_SET_NO = 999
REV_AT_EPOCH   = 394
BSTAR          = -.33698239E-1
MEAN_MOTION_DOT = -.2053348E-1
MEAN_MOTION_DDOT = 0

CCSDS_OMM_VERS = 2.0
CREATION_DATE  = 
ORIGINATOR     = 

OBJECT_NAME    = STARLINK-35834
OBJECT_ID      = 2025-268P
CENTER_NAME    = EARTH
REF_FRAME      = TEME
TIME_SYSTEM    = UTC
MEAN_ELEMENT_THEORY = SGP/SGP4

EPOCH          = 2025-12-08T06:00:02.999808
MEAN_MOTION    = 15.54793490
ECCENTRICITY   = .00014018
INCLINATION    = 43.0005
RA_OF_ASC_NODE = 147.4086
ARG_OF_PERICENTER = 265.1031
MEAN_ANOMALY   = 319.4301

EPHEMERIS_TYPE = 0
CLASSIFICATION_TYPE = U
NORAD_CAT_ID   = 66570
ELEMENT_SET_NO = 999
REV_AT_EPOCH   = 394
BSTAR          = -.33683928E-1
MEAN_MOTION_DOT = -.205259E-1
MEAN_MOTION_DDOT = 0

CCSDS_OMM_VERS = 2.0
CREATION_DATE  = 
ORIGINATOR     = 

OBJECT_NAME    = STARLINK-35836
OBJECT_ID      = 2025-268Q
CENTER_NAME    = EARTH
REF_FRAME      = TEME
TIME_SYSTEM    = UTC
MEAN_ELEMENT_THEORY = SGP/SGP4

EPOCH          = 2025-12-08T06:00:02.999808
MEAN_MOTION    = 15.54786496
ECCENTRICITY   = .00013366
INCLINATION    = 43.0005
RA_OF_ASC_NODE = 147.4039
ARG_OF_PERICENTER = 261.9666
MEAN_ANOMALY   = 324.4867

EPHEMERIS_TYPE = 0
CLASSIFICATION_TYPE = U
NORAD_CAT_ID   = 66571
ELEMENT_SET_NO = 999
REV_AT_EPOCH   = 394
BSTAR          = -.33486274E-1
MEAN_MOTION_DOT = -.2041324E-1
MEAN_MOTION_DDOT = 0

CCSDS_OMM_VERS = 2.0
CREATION_DATE  = 
ORIGINATOR     = 

OBJECT_NAME    = STARLINK-35870
OBJECT_ID      = 2025-268R
CENTER_NAME    = EARTH
REF_FRAME      = TEME
TIME_SYSTEM    = UTC
MEAN_ELEMENT_THEORY = SGP/SGP4

EPOCH          = 2025-12-08T06:00:02.999808
MEAN_MOTION    = 15.54792416
ECCENTRICITY   = .00014772
INCLINATION    = 43.0005
RA_OF_ASC_NODE = 147.4004
ARG_OF_PERICENTER = 262.3218
MEAN_ANOMALY   = 326.0477

EPHEMERIS_TYPE = 0
CLASSIFICATION_TYPE = U
NORAD_CAT_ID   = 66572
ELEMENT_SET_NO = 999
REV_AT_EPOCH   = 394
BSTAR          = -.33714554E-1
MEAN_MOTION_DOT = -.205423E-1
MEAN_MOTION_DDOT = 0

CCSDS_OMM_VERS = 2.0
CREATION_DATE  = 
ORIGINATOR     = 

OBJECT_NAME    = STARLINK-35650
OBJECT_ID      = 2025-268S
CENTER_NAME    = EARTH
REF_FRAME      = TEME
TIME_SYSTEM    = UTC
MEAN_ELEMENT_THEORY = SGP/SGP4

EPOCH          = 2025-12-08T06:00:02.999808
MEAN_MOTION    = 15.54788259
ECCENTRICITY   = .00012852
INCLINATION    = 43.0006
RA_OF_ASC_NODE = 147.3942
ARG_OF_PERICENTER = 264.8386
MEAN_ANOMALY   = 325.4463

EPHEMERIS_TYPE = 0
CLASSIFICATION_TYPE = U
NORAD_CAT_ID   = 66573
ELEMENT_SET_NO = 999
REV_AT_EPOCH   = 394
BSTAR          = -.33487359E-1
MEAN_MOTION_DOT = -.204147E-1
MEAN_MOTION_DDOT = 0

CCSDS_OMM_VERS = 2.0
CREATION_DATE  = 
ORIGINATOR     = 

OBJECT_NAME    = STARLINK-35812
OBJECT_ID      = 2025-268T
CENTER_NAME    = EARTH
REF_FRAME      = TEME
TIME_SYSTEM    = UTC
MEAN_ELEMENT_THEORY = SGP/SGP4

EPOCH          = 2025-12-08T06:00:02.999808
MEAN_MOTION    = 15.54774995
ECCENTRICITY   = .00017145
INCLINATION    = 43.0003
RA_OF_ASC_NODE = 147.3883
ARG_OF_PERICENTER = 261.5218
MEAN_ANOMALY   = 330.6921

EPHEMERIS_TYPE = 0
CLASSIFICATION_TYPE = U
NORAD_CAT_ID   = 66574
ELEMENT_SET_NO = 999
REV_AT_EPOCH   = 394
BSTAR          = -.33368792E-1
MEAN_MOTION_DOT = -.2034391E-1
MEAN_MOTION_DDOT = 0

