STARLINK-35437          
1 66563U 25268G   25342.25003472 -.02053856  00000+0 -33708-1 0  9990
2 66563  43.0007 147.4432 0001359 270.3617 300.7540 15.54792989  3945
STARLINK-35358          
1 66564U 25268H   25342.25003472 -.02057985  00000+0 -33780-1 0  9998
2 66564  43.0001 147.4386 0001335 267.5051 305.5247 15.54796958  3893
STARLINK-35893          
1 66565U 25268J   25342.25003472 -.02044419  00000+0 -33542-1 0  9993
2 66565  43.0001 147.4337 0001308 265.9397 309.0112 15.54787847  3948
STARLINK-35871          
1 66566U 25268K   25342.25003472 -.02049049  00000+0 -33624-1 0  9999
2 66566  43.0000 147.4286 0001296 265.9898 310.8779 15.54790101  3949
STARLINK-35825          
1 66567U 25268L   25342.25003472 -.02055314  00000+0 -33734-1 0  9994
2 66567  42.9998 147.4241 0001339 262.1630 316.6199 15.54794346  3941
STARLINK-35803          
1 66568U 25268M   25342.25003472 -.02048227  00000+0 -33609-1 0  9991
2 66568  43.0001 147.4187 0001368 264.4096 316.2924 15.54789347  3948
STARLINK-35835          
1 66569U 25268N   25342.25003472 -.02053348  00000+0 -33698-1 0  9990
2 66569  43.0000 147.4139 0001337 263.3909 319.2255 15.54793786  3944
STARLINK-35834          
1 66570U 25268P   25342.25003472 -.02052590  00000+0 -33684-1 0  9995
2 66570  43.0005 147.4086 0001401 265.1031 319.4301 15.54793490  3946
STARLINK-35836          
1 66571U 25268Q   25342.25003472 -.02041324  00000+0 -33486-1 0  9999
2 66571  43.0005 147.4039 0001336 261.9666 324.4867 15.54786496  3941
STARLINK-35870          
1 66572U 25268R   25342.25003472 -.02054230  00000+0 -33715-1 0  9995
2 66572  43.0005 147.4004 0001477 262.3218 326.0477 15.54792416  3942
STARLINK-35650          
1 66573U 25268S   25342.25003472 -.02041470  00000+0 -33487-1 0  9994
2 66573  43.0006 147.3942 0001285 264.8386 325.4463 15.54788259  3942
STARLINK-35812          
1 66574U 25268T   25342.25003472 -.02034391  00000+0 -33369-1 0  9998
2 66574  43.0003 147.3883 0001714 261.5218 330.6921 15.54774995  3948
